{
  "norad_id": 44324,
  "name": "RCM-2",
  "history": [
    {
      "epoch": "2026-03-28T12:45:05.882112",
      "apogee_km": 590.909697942122,
      "perigee_km": 588.8117731838993,
      "latitude_deg": -84.85695690250265,
      "longitude_deg": 103.40653567994013,
      "semi_major_axis_km": 6967.997735563011,
      "eccentricity": 0.00015054,
      "inclination_deg": 97.7599,
      "raan_deg": 96.162,
      "arg_perigee_deg": 88.9179,
      "mean_anomaly_deg": 271.2213,
      "mean_motion_rev_day": 14.92590801
    }
  ]
}